CSS (TIANHE)            
1 48274U 21035A   23305.45303066  .00038490  00000+0  45280-3 0  9991
2 48274  41.4725  40.1950 0003834  14.0598 346.0347 15.60663703143297
